FLOCK 4BE-24            
1 60505U 24149AP  26154.80833286  .00021680  00000+0  50061-3 0  9993
2 60505  97.3717 239.0643 0002772 347.5290  12.5888 15.42549214100300
LUR-1                   
1 60506U 24149AQ  26155.09812994  .00008051  00000+0  28039-3 0  9996
2 60506  97.3739 234.0226 0004003  14.6350 345.5006 15.29927979 99979
TANAGER-1               
1 60507U 24149AR  26154.88145262  .00011564  00000+0  24806-3 0  9991
2 60507  97.2828 249.1210 0003837 357.1996   2.9230 15.44878007100984
EAGLEEYE                
1 60508U 24149AS  26155.03818949  .00091923  00000+0  80786-3 0  9995
2 60508  97.3728 247.6740 0002663 276.6116  83.4842 15.68509188100879
FLOCK 4BE-29            
1 60509U 24149AT  26154.18045210  .00018751  00000+0  41767-3 0  9998
2 60509  97.3812 239.8471 0002234  18.3317 341.8011 15.43656564100251
TRANSPORTER-11 OBJECT AU
1 60510U 24149AU  26155.19278406  .00016807  00000+0  42501-3 0  9994
2 60510  97.3730 238.8131 0002969 358.0782   2.0452 15.39847484100319
FLOCK 4BE-2             
1 60511U 24149AV  26155.03519527  .00058245  00000+0  98932-3 0  9991
2 60511  97.3831 241.9688 0002111 323.4896  36.6212 15.51274572100464
FLOCK 4BE-13            
1 60512U 24149AW  26155.04508463  .00015882  00000+0  38030-3 0  9993
2 60512  97.3720 239.3235 0002909 330.5983  29.5100 15.41518471100344
FLOCK 4BE-27            
1 60513U 24149AX  26154.95539132  .00010179  00000+0  30973-3 0  9992
2 60513  97.3825 236.8026 0003668  14.1325 346.0020 15.34204933100119
FLOCK 4BE-9             
1 60514U 24149AY  26155.03474972  .00017690  00000+0  43932-3 0  9997
2 60514  97.3790 239.1827 0002231  16.0745 344.0572 15.40392216100296
FLOCK 4BE-6             
1 60516U 24149BA  26154.53317822  .00015475  00000+0  40005-3 0  9990
2 60516  97.3789 238.0605 0002825  10.7720 349.3585 15.39191977100179
FLOCK 4BE-14            
1 60517U 24149BB  26154.46425474  .00018877  00000+0  46612-3 0  9995
2 60517  97.3697 238.1159 0003641   1.9742 358.1518 15.40548180100219
FLOCK 4BE-1             
1 60518U 24149BC  26155.01347730  .00020613  00000+0  48253-3 0  9990
2 60518  97.3779 239.9002 0003362 358.8581   1.2658 15.42146793100343
FLOCK 4BE-28            
1 60519U 24149BD  26155.04726355  .00019693  00000+0  42723-3 0  9990
2 60519  97.3746 240.6178 0003310 352.1802   7.9394 15.44427824100414
IPERDRONE.0             
1 60520U 24149BE  26154.24559931  .00077419  00000+0  79644-3 0  9999
2 60520  97.3781 246.7910 0002237 263.5446  96.5558 15.64625891100739
TRANSPORTER-11 OBJECT BF
1 60521U 24149BF  26154.21082029  .00204654  00000+0  11419-2 0  9994
2 60521  97.3774 249.1325 0004143 254.4467 105.6342 15.78829271100870
CONNECTA IOT-2          
1 60522U 24149BG  26154.52229389  .00005127  00000+0  21541-3 0  9993
2 60522  97.3839 232.8759 0006889  27.3779 332.7820 15.23853521 99815
PTD-R (TYVAK-0127)      
1 60523U 24149BH  26154.26107563  .00642488  18644-3  13002-2 0  9990
2 60523  97.3876 253.7884 0005833 270.1081  89.9528 15.99581707101200
CONNECTA IOT-4          
1 60524U 24149BJ  26155.09811964  .00022282  00000+0  52988-3 0  9994
2 60524  97.3795 239.3187 0004468 347.1728  12.9405 15.41650668100314
ORESAT0.5               
1 60525U 24149BK  26154.19160308  .00022224  00000+0  47997-3 0  9994
2 60525  97.3723 239.9838 0004447 340.1372  19.9703 15.44531443100310
DEIMOS                  
1 60526U 24149BL  26154.21619880  .00021123  00000+0  46923-3 0  9997
2 60526  97.3784 240.1556 0004554 348.5586  11.5558 15.43704684100298
CUAVA-2                 
1 60527U 24149BM  26155.18390397  .00013836  00000+0  39900-3 0  9993
2 60527  97.3724 236.6839 0005963 351.1978   8.9160 15.35808735100176
ERNST                   
1 60528U 24149BN  26155.03616519  .00015112  00000+0  39499-3 0  9997
2 60528  97.3807 238.6607 0005297 357.1854   2.9360 15.38849600100257
TORO                    
1 60530U 24149BQ  26154.79917287  .00002046  00000+0  18576-3 0  9993
2 60530  97.6779 229.7174 0001371  86.0575 274.0804 14.96368955 97957
HYPSO-2                 
1 60531U 24149BR  26155.18187425  .00002590  00000+0  22011-3 0  9994
2 60531  97.6836 231.6334 0002153  61.9102 298.2338 14.98737079 98106
LEMU NGE                
1 60532U 24149BS  26154.79828239  .00002332  00000+0  21903-3 0  9999
2 60532  97.6838 230.0288 0002416  82.3276 277.8220 14.94893326 97950
LEMUR-2-STELLA          
1 60533U 24149BT  26154.77678173  .00013306  00000+0  78877-3 0  9993
2 60533  97.6744 237.1777 0001930 107.4795 252.6646 15.11502384 98475
SATELIOT_2              
1 60534U 24149BU  26154.58514417  .00001733  00000+0  15831-3 0  9995
2 60534  97.6828 229.7899 0001765 100.7432 259.3988 14.96310004 97932
NIGHTJAR                
1 60535U 24149BV  26154.17397849  .00003784  00000+0  31751-3 0  9996
2 60535  97.6870 231.0747 0002728  96.5884 263.5650 14.98947086140773
LEMUR-2-MARHISYAM       
1 60536U 24149BW  26154.22249308  .00012853  00000+0  77357-3 0  9998
2 60536  97.6883 237.0548 0003024 140.8634 219.2814 15.10956429 98373
