OBJECT_NAME,OBJECT_ID,EPOCH,MEAN_MOTION,ECCENTRICITY,INCLINATION,RA_OF_ASC_NODE,ARG_OF_PERICENTER,MEAN_ANOMALY,EPHEMERIS_TYPE,CLASSIFICATION_TYPE,NORAD_CAT_ID,ELEMENT_SET_NO,REV_AT_EPOCH,BSTAR,MEAN_MOTION_DOT,MEAN_MOTION_DDOT
FLOCK 4BE-24,2024-149AP,2026-06-03T19:23:59.959104,15.42549214,.00027729,97.3717,239.0643,347.5290,12.5888,0,U,60505,999,10030,.50060675E-3,.2168E-3,0
LUR-1,2024-149AQ,2026-06-04T02:21:18.426816,15.29927979,.0004003,97.3739,234.0226,14.6350,345.5006,0,U,60506,999,9997,.28039E-3,.8051E-4,0
TANAGER-1,2024-149AR,2026-06-03T21:09:17.506368,15.44878007,.0003837,97.2828,249.1210,357.1996,2.9230,0,U,60507,999,10098,.24806E-3,.11564E-3,0
EAGLEEYE,2024-149AS,2026-06-04T00:54:59.571936,15.68509188,.0002663,97.3728,247.6740,276.6116,83.4842,0,U,60508,999,10087,.80786E-3,.91923E-3,0
FLOCK 4BE-29,2024-149AT,2026-06-03T04:19:51.061440,15.43656564,.00022345,97.3812,239.8471,18.3317,341.8011,0,U,60509,999,10025,.41767418E-3,.18751E-3,0
TRANSPORTER-11 OBJECT AU,2024-149AU,2026-06-04T04:37:36.542784,15.39847484,.0002969,97.3730,238.8131,358.0782,2.0452,0,U,60510,999,10031,.42501E-3,.16807E-3,0
FLOCK 4BE-2,2024-149AV,2026-06-04T00:50:40.871328,15.51274572,.0002111,97.3831,241.9688,323.4896,36.6212,0,U,60511,999,10046,.98932E-3,.58245E-3,0
FLOCK 4BE-13,2024-149AW,2026-06-04T01:04:55.312032,15.41518471,.0002909,97.3720,239.3235,330.5983,29.5100,0,U,60512,999,10034,.3803E-3,.15882E-3,0
FLOCK 4BE-27,2024-149AX,2026-06-03T22:55:45.810048,15.34204933,.0003668,97.3825,236.8026,14.1325,346.0020,0,U,60513,999,10011,.30973E-3,.10179E-3,0
FLOCK 4BE-9,2024-149AY,2026-06-04T00:50:02.375808,15.40392216,.0002231,97.3790,239.1827,16.0745,344.0572,0,U,60514,999,10029,.43932E-3,.1769E-3,0
FLOCK 4BE-6,2024-149BA,2026-06-03T12:47:46.598208,15.39191977,.0002825,97.3789,238.0605,10.7720,349.3585,0,U,60516,999,10017,.40005E-3,.15475E-3,0
FLOCK 4BE-14,2024-149BB,2026-06-03T11:08:31.609536,15.40548180,.00036415,97.3697,238.1159,1.9742,358.1518,0,U,60517,999,10021,.46612032E-3,.18877E-3,0
FLOCK 4BE-1,2024-149BC,2026-06-04T00:19:24.438720,15.42146793,.0003362,97.3779,239.9002,358.8581,1.2658,0,U,60518,999,10034,.48253E-3,.20613E-3,0
FLOCK 4BE-28,2024-149BD,2026-06-04T01:08:03.570720,15.44427824,.000331,97.3746,240.6178,352.1802,7.9394,0,U,60519,999,10041,.42723E-3,.19693E-3,0
IPERDRONE.0,2024-149BE,2026-06-03T05:53:39.780384,15.64625891,.0002237,97.3781,246.7910,263.5446,96.5558,0,U,60520,999,10073,.79644E-3,.77419E-3,0
TRANSPORTER-11 OBJECT BF,2024-149BF,2026-06-03T05:03:34.873056,15.78829271,.0004143,97.3774,249.1325,254.4467,105.6342,0,U,60521,999,10087,.11419E-2,.204654E-2,0
CONNECTA IOT-2,2024-149BG,2026-06-03T12:32:06.192096,15.23853521,.00068893,97.3839,232.8759,27.3779,332.7820,0,U,60522,999,9981,.21540778E-3,.5127E-4,0
PTD-R (TYVAK-0127),2024-149BH,2026-06-03T06:15:56.934432,15.99581707,.0005833,97.3876,253.7884,270.1081,89.9528,0,U,60523,999,10120,.13001821E-2,.642488E-2,.18643626E-3
CONNECTA IOT-4,2024-149BJ,2026-06-04T02:21:17.536896,15.41650668,.0004468,97.3795,239.3187,347.1728,12.9405,0,U,60524,999,10031,.52988E-3,.22282E-3,0
ORESAT0.5,2024-149BK,2026-06-03T04:35:54.506112,15.44531443,.0004447,97.3723,239.9838,340.1372,19.9703,0,U,60525,999,10031,.47997E-3,.22224E-3,0
DEIMOS,2024-149BL,2026-06-03T05:11:19.576320,15.43704684,.0004554,97.3784,240.1556,348.5586,11.5558,0,U,60526,999,10029,.46923E-3,.21123E-3,0
CUAVA-2,2024-149BM,2026-06-04T04:24:49.303008,15.35808735,.0005963,97.3724,236.6839,351.1978,8.9160,0,U,60527,999,10017,.399E-3,.13836E-3,0
ERNST,2024-149BN,2026-06-04T00:52:04.672416,15.38849600,.0005297,97.3807,238.6607,357.1854,2.9360,0,U,60528,999,10025,.39499E-3,.15112E-3,0
TORO,2024-149BQ,2026-06-03T19:10:48.535968,14.96368955,.00013713,97.6779,229.7174,86.0575,274.0804,0,U,60530,999,9795,.18576119E-3,.2046E-4,0
HYPSO-2,2024-149BR,2026-06-04T04:21:53.935200,14.98737079,.0002153,97.6836,231.6334,61.9102,298.2338,0,U,60531,999,9810,.22011E-3,.259E-4,0
LEMU NGE,2024-149BS,2026-06-03T19:09:31.598496,14.94893326,.00024163,97.6838,230.0288,82.3276,277.8220,0,U,60532,999,9795,.21903132E-3,.2332E-4,0
LEMUR-2-STELLA,2024-149BT,2026-06-03T18:38:33.941472,15.11502384,.00019303,97.6744,237.1777,107.4795,252.6646,0,U,60533,999,9847,.78876653E-3,.13306E-3,0
SATELIOT_2,2024-149BU,2026-06-03T14:02:36.456288,14.96310004,.0001765,97.6828,229.7899,100.7432,259.3988,0,U,60534,999,9793,.15831E-3,.1733E-4,0
NIGHTJAR,2024-149BV,2026-06-03T04:10:31.741536,14.98947086,.00027286,97.6870,231.0747,96.5884,263.5650,0,U,60535,999,14077,.31751259E-3,.3784E-4,0
LEMUR-2-MARHISYAM,2024-149BW,2026-06-03T05:20:23.402112,15.10956429,.0003024,97.6883,237.0548,140.8634,219.2814,0,U,60536,999,9837,.77357E-3,.12853E-3,0
